ONEWEB-0320             
1 49190U 21083E   26155.03554144 -.00000021  00000+0 -86482-4 0  9998
2 49190  87.9156 338.0805 0001778  90.3397 269.7939 13.18687367228245
ONEWEB-0321             
1 49191U 21083F   26155.24663763  .00000034  00000+0  52442-4 0  9991
2 49191  87.9186 277.0149 0001853 112.4341 247.6989 13.20771288235125
ONEWEB-0322             
1 49192U 21083G   26154.97667663  .00000060  00000+0  12960-3 0  9993
2 49192  87.8940 322.8673 0001420  87.8026 272.3265 13.13469527229182
ONEWEB-0324             
1 49193U 21083H   26155.00855725 -.00000622  00000+0 -16118-2 0  9991
2 49193  87.9161 338.0708 0001927  86.5036 273.6316 13.18686651228269
ONEWEB-0325             
1 49194U 21083J   26155.01193903  .00000028  00000+0  37717-4 0  9994
2 49194  87.9157 338.0808 0001838  88.0455 272.0888 13.18686486228273
ONEWEB-0326             
1 49195U 21083K   26155.02724695 -.00000436  00000+0 -11387-2 0  9992
2 49195  87.9167 338.0748 0002096  85.4725 274.6647 13.18686002228260
ONEWEB-0327             
1 49196U 21083L   26155.02697435 -.00000002  00000+0 -38402-4 0  9992
2 49196  87.9157 338.0800 0002142  82.4004 277.7371 13.18686611228284
ONEWEB-0328             
1 49197U 21083M   26154.96651571 -.00000193  00000+0 -56403-3 0  9997
2 49197  87.8952 322.8411 0001834  97.0089 263.1249 13.13469468229163
ONEWEB-0331             
1 49198U 21083N   26155.02037825  .00000003  00000+0 -25911-4 0  9996
2 49198  87.9167 338.0697 0002173  89.3583 270.7798 13.18686629228277
ONEWEB-0333             
1 49199U 21083P   26154.96143357 -.00000239  00000+0 -69050-3 0  9990
2 49199  87.8943 322.8696 0001806  90.9651 269.1685 13.13469462229171
ONEWEB-0334             
1 49200U 21083Q   26155.26431049  .00000000  00000+0 -31756-4 0  9993
2 49200  87.9182 277.0226 0001023  96.4202 263.7048 13.20772297235085
ONEWEB-0335             
1 49201U 21083R   26154.49929801 -.00000286  00000+0 -81763-3 0  9995
2 49201  87.8944 322.9586 0001994  93.0455 267.0902 13.13469989229127
ONEWEB-0336             
1 49202U 21083S   26155.00376126  .00000227  00000+0  58750-3 0  9993
2 49202  87.8943 322.8539 0002207  95.9458 264.1922 13.13469099229184
ONEWEB-0337             
1 49203U 21083T   26155.01378228 -.00000024  00000+0 -10024-3 0  9999
2 49203  87.8941 322.8583 0001914  97.8265 262.3081 13.13468806229184
ONEWEB-0338             
1 49204U 21083U   26154.32911579  .00000018  00000+0  11908-4 0  9999
2 49204  87.9176 277.2121 0001620 101.5792 258.5524 13.20769572234984
ONEWEB-0339             
1 49205U 21083V   26155.02237782 -.00000269  00000+0 -77203-3 0  9994
2 49205  87.8943 322.8489 0001527  95.2627 264.8677 13.13468744229164
