[{"OBJECT_NAME":"ONEWEB-0320","OBJECT_ID":"2021-083E","EPOCH":"2026-06-04T00:51:10.780416","MEAN_MOTION":13.18687367,"ECCENTRICITY":0.0001778,"INCLINATION":87.9156,"RA_OF_ASC_NODE":338.0805,"ARG_OF_PERICENTER":90.3397,"MEAN_ANOMALY":269.7939,"EPHEMERIS_TYPE":0,"CLASSIFICATION_TYPE":"U","NORAD_CAT_ID":49190,"ELEMENT_SET_NO":999,"REV_AT_EPOCH":22824,"BSTAR":-8.6482e-05,"MEAN_MOTION_DOT":-2.1e-07,"MEAN_MOTION_DDOT":0.0},{"OBJECT_NAME":"ONEWEB-0321","OBJECT_ID":"2021-083F","EPOCH":"2026-06-04T05:55:09.491232","MEAN_MOTION":13.20771288,"ECCENTRICITY":0.0001853,"INCLINATION":87.9186,"RA_OF_ASC_NODE":277.0149,"ARG_OF_PERICENTER":112.4341,"MEAN_ANOMALY":247.6989,"EPHEMERIS_TYPE":0,"CLASSIFICATION_TYPE":"U","NORAD_CAT_ID":49191,"ELEMENT_SET_NO":999,"REV_AT_EPOCH":23512,"BSTAR":5.2442000000000004e-05,"MEAN_MOTION_DOT":3.4e-07,"MEAN_MOTION_DDOT":0.0},{"OBJECT_NAME":"ONEWEB-0322","OBJECT_ID":"2021-083G","EPOCH":"2026-06-03T23:26:24.860832","MEAN_MOTION":13.13469527,"ECCENTRICITY":0.000142,"INCLINATION":87.894,"RA_OF_ASC_NODE":322.8673,"ARG_OF_PERICENTER":87.8026,"MEAN_ANOMALY":272.3265,"EPHEMERIS_TYPE":0,"CLASSIFICATION_TYPE":"U","NORAD_CAT_ID":49192,"ELEMENT_SET_NO":999,"REV_AT_EPOCH":22918,"BSTAR":0.0001296,"MEAN_MOTION_DOT":6e-07,"MEAN_MOTION_DDOT":0.0},{"OBJECT_NAME":"ONEWEB-0324","OBJECT_ID":"2021-083H","EPOCH":"2026-06-04T00:12:19.346400","MEAN_MOTION":13.18686651,"ECCENTRICITY":0.0001927,"INCLINATION":87.9161,"RA_OF_ASC_NODE":338.0708,"ARG_OF_PERICENTER":86.5036,"MEAN_ANOMALY":273.6316,"EPHEMERIS_TYPE":0,"CLASSIFICATION_TYPE":"U","NORAD_CAT_ID":49193,"ELEMENT_SET_NO":999,"REV_AT_EPOCH":22826,"BSTAR":-0.0016118,"MEAN_MOTION_DOT":-6.22e-06,"MEAN_MOTION_DDOT":0.0},{"OBJECT_NAME":"ONEWEB-0325","OBJECT_ID":"2021-083J","EPOCH":"2026-06-04T00:17:11.532192","MEAN_MOTION":13.18686486,"ECCENTRICITY":0.0001838,"INCLINATION":87.9157,"RA_OF_ASC_NODE":338.0808,"ARG_OF_PERICENTER":88.0455,"MEAN_ANOMALY":272.0888,"EPHEMERIS_TYPE":0,"CLASSIFICATION_TYPE":"U","NORAD_CAT_ID":49194,"ELEMENT_SET_NO":999,"REV_AT_EPOCH":22827,"BSTAR":3.7717000000000005e-05,"MEAN_MOTION_DOT":2.8e-07,"MEAN_MOTION_DDOT":0.0},{"OBJECT_NAME":"ONEWEB-0326","OBJECT_ID":"2021-083K","EPOCH":"2026-06-04T00:39:14.136480","MEAN_MOTION":13.18686002,"ECCENTRICITY":0.0002096,"INCLINATION":87.9167,"RA_OF_ASC_NODE":338.0748,"ARG_OF_PERICENTER":85.4725,"MEAN_ANOMALY":274.6647,"EPHEMERIS_TYPE":0,"CLASSIFICATION_TYPE":"U","NORAD_CAT_ID":49195,"ELEMENT_SET_NO":999,"REV_AT_EPOCH":22826,"BSTAR":-0.0011387,"MEAN_MOTION_DOT":-4.36e-06,"MEAN_MOTION_DDOT":0.0},{"OBJECT_NAME":"ONEWEB-0327","OBJECT_ID":"2021-083L","EPOCH":"2026-06-04T00:38:50.583840","MEAN_MOTION":13.18686611,"ECCENTRICITY":0.0002142,"INCLINATION":87.9157,"RA_OF_ASC_NODE":338.08,"ARG_OF_PERICENTER":82.4004,"MEAN_ANOMALY":277.7371,"EPHEMERIS_TYPE":0,"CLASSIFICATION_TYPE":"U","NORAD_CAT_ID":49196,"ELEMENT_SET_NO":999,"REV_AT_EPOCH":22828,"BSTAR":-3.8401999999999996e-05,"MEAN_MOTION_DOT":-2e-08,"MEAN_MOTION_DDOT":0.0},{"OBJECT_NAME":"ONEWEB-0328","OBJECT_ID":"2021-083M","EPOCH":"2026-06-03T23:11:46.957344","MEAN_MOTION":13.13469468,"ECCENTRICITY":0.0001834,"INCLINATION":87.8952,"RA_OF_ASC_NODE":322.8411,"ARG_OF_PERICENTER":97.0089,"MEAN_ANOMALY":263.1249,"EPHEMERIS_TYPE":0,"CLASSIFICATION_TYPE":"U","NORAD_CAT_ID":49197,"ELEMENT_SET_NO":999,"REV_AT_EPOCH":22916,"BSTAR":-0.0005640300000000001,"MEAN_MOTION_DOT":-1.93e-06,"MEAN_MOTION_DDOT":0.0},{"OBJECT_NAME":"ONEWEB-0331","OBJECT_ID":"2021-083N","EPOCH":"2026-06-04T00:29:20.680800","MEAN_MOTION":13.18686629,"ECCENTRICITY":0.0002173,"INCLINATION":87.9167,"RA_OF_ASC_NODE":338.0697,"ARG_OF_PERICENTER":89.3583,"MEAN_ANOMALY":270.7798,"EPHEMERIS_TYPE":0,"CLASSIFICATION_TYPE":"U","NORAD_CAT_ID":49198,"ELEMENT_SET_NO":999,"REV_AT_EPOCH":22827,"BSTAR":-2.5911000000000003e-05,"MEAN_MOTION_DOT":3e-08,"MEAN_MOTION_DDOT":0.0},{"OBJECT_NAME":"ONEWEB-0333","OBJECT_ID":"2021-083P","EPOCH":"2026-06-03T23:04:27.860448","MEAN_MOTION":13.13469462,"ECCENTRICITY":0.0001806,"INCLINATION":87.8943,"RA_OF_ASC_NODE":322.8696,"ARG_OF_PERICENTER":90.9651,"MEAN_ANOMALY":269.1685,"EPHEMERIS_TYPE":0,"CLASSIFICATION_TYPE":"U","NORAD_CAT_ID":49199,"ELEMENT_SET_NO":999,"REV_AT_EPOCH":22917,"BSTAR":-0.0006905,"MEAN_MOTION_DOT":-2.39e-06,"MEAN_MOTION_DDOT":0.0},{"OBJECT_NAME":"ONEWEB-0334","OBJECT_ID":"2021-083Q","EPOCH":"2026-06-04T06:20:36.426336","MEAN_MOTION":13.20772297,"ECCENTRICITY":0.0001023,"INCLINATION":87.9182,"RA_OF_ASC_NODE":277.0226,"ARG_OF_PERICENTER":96.4202,"MEAN_ANOMALY":263.7048,"EPHEMERIS_TYPE":0,"CLASSIFICATION_TYPE":"U","NORAD_CAT_ID":49200,"ELEMENT_SET_NO":999,"REV_AT_EPOCH":23508,"BSTAR":-3.1756000000000006e-05,"MEAN_MOTION_DOT":0.0,"MEAN_MOTION_DDOT":0.0},{"OBJECT_NAME":"ONEWEB-0335","OBJECT_ID":"2021-083R","EPOCH":"2026-06-03T11:58:59.348064","MEAN_MOTION":13.13469989,"ECCENTRICITY":0.0001994,"INCLINATION":87.8944,"RA_OF_ASC_NODE":322.9586,"ARG_OF_PERICENTER":93.0455,"MEAN_ANOMALY":267.0902,"EPHEMERIS_TYPE":0,"CLASSIFICATION_TYPE":"U","NORAD_CAT_ID":49201,"ELEMENT_SET_NO":999,"REV_AT_EPOCH":22912,"BSTAR":-0.00081763,"MEAN_MOTION_DOT":-2.86e-06,"MEAN_MOTION_DDOT":0.0},{"OBJECT_NAME":"ONEWEB-0336","OBJECT_ID":"2021-083S","EPOCH":"2026-06-04T00:05:24.972864","MEAN_MOTION":13.13469099,"ECCENTRICITY":0.0002207,"INCLINATION":87.8943,"RA_OF_ASC_NODE":322.8539,"ARG_OF_PERICENTER":95.9458,"MEAN_ANOMALY":264.1922,"EPHEMERIS_TYPE":0,"CLASSIFICATION_TYPE":"U","NORAD_CAT_ID":49202,"ELEMENT_SET_NO":999,"REV_AT_EPOCH":22918,"BSTAR":0.0005875,"MEAN_MOTION_DOT":2.27e-06,"MEAN_MOTION_DDOT":0.0},{"OBJECT_NAME":"ONEWEB-0337","OBJECT_ID":"2021-083T","EPOCH":"2026-06-04T00:19:50.788992","MEAN_MOTION":13.13468806,"ECCENTRICITY":0.0001914,"INCLINATION":87.8941,"RA_OF_ASC_NODE":322.8583,"ARG_OF_PERICENTER":97.8265,"MEAN_ANOMALY":262.3081,"EPHEMERIS_TYPE":0,"CLASSIFICATION_TYPE":"U","NORAD_CAT_ID":49203,"ELEMENT_SET_NO":999,"REV_AT_EPOCH":22918,"BSTAR":-0.00010024,"MEAN_MOTION_DOT":-2.4e-07,"MEAN_MOTION_DDOT":0.0},{"OBJECT_NAME":"ONEWEB-0338","OBJECT_ID":"2021-083U","EPOCH":"2026-06-03T07:53:55.604256","MEAN_MOTION":13.20769572,"ECCENTRICITY":0.000162,"INCLINATION":87.9176,"RA_OF_ASC_NODE":277.2121,"ARG_OF_PERICENTER":101.5792,"MEAN_ANOMALY":258.5524,"EPHEMERIS_TYPE":0,"CLASSIFICATION_TYPE":"U","NORAD_CAT_ID":49204,"ELEMENT_SET_NO":999,"REV_AT_EPOCH":23498,"BSTAR":1.1908000000000002e-05,"MEAN_MOTION_DOT":1.8e-07,"MEAN_MOTION_DDOT":0.0},{"OBJECT_NAME":"ONEWEB-0339","OBJECT_ID":"2021-083V","EPOCH":"2026-06-04T00:32:13.443648","MEAN_MOTION":13.13468744,"ECCENTRICITY":0.0001527,"INCLINATION":87.8943,"RA_OF_ASC_NODE":322.8489,"ARG_OF_PERICENTER":95.2627,"MEAN_ANOMALY":264.8677,"EPHEMERIS_TYPE":0,"CLASSIFICATION_TYPE":"U","NORAD_CAT_ID":49205,"ELEMENT_SET_NO":999,"REV_AT_EPOCH":22916,"BSTAR":-0.00077203,"MEAN_MOTION_DOT":-2.69e-06,"MEAN_MOTION_DDOT":0.0}]